{"type": "FeatureCollection", "features": [{"type": "Feature", "properties": {"stop_id": 1, "stop_name": "Stop A"}, "geometry": {"type": "Point", "coordinates": [1980000, 790000]}}, {"type": "Feature", "properties": {"stop_id": 2, "stop_name": "Stop B"}, "geometry": {"type": "Point", "coordinates": [1980600, 790400]}}, {"type": "Feature", "properties": {"stop_id": 3, "stop_name": "Stop C"}, "geometry": {"type": "Point", "coordinates": [1981100, 790800]}}, {"type": "Feature", "properties": {"stop_id": 4, "stop_name": "Stop D"}, "geometry": {"type": "Point", "coordinates": [1981700, 790200]}}, {"type": "Feature", "properties": {"stop_id": 5, "stop_name": "Stop E"}, "geometry": {"type": "Point", "coordinates": [1982200, 790900]}}]}