{"type": "FeatureCollection", "features": [{"type": "Feature", "properties": {"district": "West", "category": "Residential"}, "geometry": {"type": "Polygon", "coordinates": [[[1979500, 789500], [1981200, 789500], [1981200, 791200], [1979500, 791200], [1979500, 789500]]]}}, {"type": "Feature", "properties": {"district": "East", "category": "Mixed Use"}, "geometry": {"type": "Polygon", "coordinates": [[[1981200, 789500], [1982800, 789500], [1982800, 791200], [1981200, 791200], [1981200, 789500]]]}}]}