{"type":"FeatureCollection","features":[{"type":"Feature","id":2,"geometry":{"type":"Polygon","coordinates":[[[-79.074506399157499,35.874690532812544],[-79.071752451781748,35.874746109683365],[-79.071761415457033,35.874666543555847],[-79.072275435183229,35.874145853306295],[-79.072930601101092,35.873587765632593],[-79.073204373971777,35.873527844428942],[-79.073434183180453,35.873376089750593],[-79.073448250167928,35.873532843417962],[-79.073910169314658,35.873440179572917],[-79.073945550141218,35.873375254422491],[-79.0740945026579,35.873391129020106],[-79.074248801028219,35.873255560302155],[-79.074312938033188,35.873261186006793],[-79.074376932790798,35.873112281267439],[-79.074429241881816,35.873103834677828],[-79.07443171882403,35.873044596923897],[-79.074554454513276,35.872998331354296],[-79.074589484198043,35.87300964127234],[-79.074814707700369,35.872922102780365],[-79.074833568531602,35.872786619006405],[-79.074866518230479,35.872765397143645],[-79.074930972185641,35.872723887140403],[-79.07497018401034,35.872695358944398],[-79.075025026166529,35.872686568040884],[-79.075086983626576,35.872618534678153],[-79.07509452721284,35.87256375709493],[-79.075187377192435,35.872594261694992],[-79.075329507253855,35.872534418582248],[-79.075313813630416,35.872446860970079],[-79.075390041585337,35.87229812025101],[-79.075441498503238,35.872280229767014],[-79.075505236971154,35.87231161018402],[-79.075556337469649,35.872363774621022],[-79.075679510764999,35.872336051301481],[-79.076220716607494,35.87221808809484],[-79.076303156573985,35.871947777964216],[-79.077272851250711,35.871212438264472],[-79.078335851613744,35.87086115364022],[-79.078357371348517,35.869567691558828],[-79.078360212224197,35.869396957864879],[-79.078361216722016,35.869336579830595],[-79.078364867472558,35.869117186225054],[-79.078369511128656,35.868838054499577],[-79.078374798277494,35.868520275673035],[-79.078379908503308,35.868213071173471],[-79.078393121305041,35.867418824859136],[-79.078415592718386,35.867098759899029],[-79.078435142478611,35.866812520512106],[-79.078435558590456,35.866807712618012],[-79.078490868782055,35.865985742227458],[-79.078495801819045,35.865853529281857],[-79.078492690924776,35.865692303585341],[-79.078489339514505,35.865508026833751],[-79.078486450268159,35.865349248953812],[-79.078482326051045,35.865013403461447],[-79.078479137274229,35.864726324938921],[-79.078478365515323,35.864656798667824],[-79.078478164014868,35.864638583160833],[-79.078472202364864,35.864149410131418],[-79.079042238614306,35.864237970552665],[-79.079718185683248,35.8643427883013],[-79.079759956437286,35.864349264900667],[-79.07975307147511,35.864278689886142],[-79.079746056771469,35.864206788214041],[-79.079739138271961,35.864135865308327],[-79.079732252238841,35.864065290288082],[-79.079707781061529,35.86406152886039],[-79.079696164414912,35.863782884907081],[-79.079687038294423,35.863563952540495],[-79.079683318700162,35.863478333331834],[-79.079676677164528,35.863325465958724],[-79.079783794464817,35.863287791118715],[-79.079876607262349,35.863254945805267],[-79.08000983535058,35.863207797027108],[-79.08009469630413,35.863177896864322],[-79.080201717956299,35.863140188369044],[-79.080393178374379,35.863072579685557],[-79.080468286329662,35.863009367549651],[-79.080530591690717,35.862956930071078],[-79.080553774802581,35.862937340824772],[-79.080637122572341,35.862865094630443],[-79.080664339808294,35.862841501741684],[-79.080748067948917,35.862768927137374],[-79.080777590648225,35.862743337176518],[-79.080793607604974,35.862729419219754],[-79.080827796834015,35.862691123871109],[-79.080872440098346,35.862641120661358],[-79.081051468273103,35.862440590891552],[-79.081100380455553,35.862385805063163],[-79.081468155600135,35.862653892414791],[-79.081473379192715,35.862657846615264],[-79.081579129931555,35.862737926579463],[-79.081714807259573,35.862474697559016],[-79.082034586625781,35.861593497765192],[-79.082180532993661,35.860778870197457],[-79.082041409547202,35.860783297417228],[-79.067374439052287,35.861301635367518],[-79.067581963326504,35.861650154303589],[-79.06751623252805,35.862410256594991],[-79.066967811519703,35.862422475326106],[-79.066781714522818,35.862426620694315],[-79.066741037602611,35.862839800179508],[-79.066739168076865,35.862855314696496],[-79.066882771972544,35.862871581432579],[-79.066870806875158,35.863211360706259],[-79.066869941382592,35.863235913093298],[-79.066477167859134,35.863217936525572],[-79.065822084645447,35.863218694753961],[-79.065845253655098,35.863799673808302],[-79.06584138073022,35.864067759459978],[-79.065839240338832,35.864215849878825],[-79.06583574368085,35.864457907027422],[-79.06583400270614,35.864578458342123],[-79.065770944709868,35.865157383579039],[-79.065770318802137,35.865200560641711],[-79.06575881633573,35.865993881366464],[-79.065761243657576,35.866078378570293],[-79.065757590718732,35.866078444533514],[-79.064723987127778,35.866097194169754],[-79.063980015164631,35.866110684689261],[-79.063963103562088,35.866110990995111],[-79.063716039122525,35.866831891166676],[-79.064569310101248,35.867747459027946],[-79.064549827547665,35.867790098927166],[-79.064524620741324,35.867772539290442],[-79.064009025310128,35.868945294249222],[-79.062614307599603,35.872104386428518],[-79.060371522324118,35.872267991954715],[-79.060385313703392,35.872730236432105],[-79.060382092948245,35.872812608329113],[-79.060426715898814,35.873865970312728],[-79.06047287052084,35.875187190093342],[-79.057510332244419,35.874957577298488],[-79.05717281728154,35.875211623659901],[-79.056525966675537,35.875698065303524],[-79.055887048905049,35.876128860768944],[-79.055113764304764,35.876650313693382],[-79.055012721699384,35.876713484637499],[-79.052943597929968,35.877785032246543],[-79.052943658301288,35.877790969173248],[-79.052939850786203,35.877833135178577],[-79.052936549439778,35.877875394700041],[-79.052933475149089,35.877917698286659],[-79.052930348800231,35.877959995585854],[-79.052926890172245,35.878002238048495],[-79.05292282236492,35.878044375320982],[-79.052917865156914,35.878086359755251],[-79.052911738324369,35.878128140999266],[-79.052904164966037,35.878169669600631],[-79.052894863750794,35.878210897010234],[-79.052883585465992,35.878251778270041],[-79.052870409857178,35.878292329568545],[-79.052855629326956,35.878332601252112],[-79.052839537387072,35.878372645469078],[-79.052822426441836,35.878412513467204],[-79.052804590002978,35.878452255592563],[-79.052786322691375,35.878491923993536],[-79.052767915805489,35.878531569918692],[-79.052749665073549,35.878571243713722],[-79.052731861795749,35.878610997528945],[-79.052714799486949,35.878650882612448],[-79.0526985136039,35.878690924186039],[-79.052682585490643,35.878731074661317],[-79.052666904379876,35.878771303441511],[-79.052651368362362,35.878811577222187],[-79.052635877745303,35.878851865401629],[-79.052620328403606,35.878892133775025],[-79.052604619536538,35.878932351741085],[-79.05258864923421,35.878972485995099],[-79.052572316695603,35.879012505935862],[-79.052555518903461,35.8790523791602],[-79.052538155055302,35.879092073264154],[-79.052520123241649,35.879131556745371],[-79.052501337059326,35.879170800798846],[-79.052481891771322,35.879209836929029],[-79.052461883747853,35.879248695738944],[-79.052441383881174,35.879287398829355],[-79.052420465279837,35.879325969602633],[-79.05239919772896,35.879364429660214],[-79.052377655444857,35.879402802404122],[-79.052355908213926,35.879441111238478],[-79.052334030250975,35.879479376861447],[-79.05231209023637,35.879517624480322],[-79.052290162384537,35.879555873892144],[-79.052268317591015,35.879594150303276],[-79.052246627856633,35.879632475314487],[-79.052225165182904,35.879670871427734],[-79.052204127879435,35.879709444913324],[-79.052183863847048,35.879748425457407],[-79.052164189182548,35.87978771940243],[-79.052144884527792,35.879827209671753],[-79.052125729417767,35.879866780991712],[-79.052106504493779,35.879906316285442],[-79.052086989289705,35.879945699377615],[-79.052066964446013,35.879984813191058],[-79.052046210604118,35.880023542451141],[-79.052024506188403,35.880061769180031],[-79.052001631839119,35.880099377201311],[-79.051977368196205,35.880136250338523],[-79.051951495899587,35.880172272414939],[-79.051923872066425,35.880207420957497],[-79.051894819244296,35.880242112234505],[-79.051864460372173,35.88027635881091],[-79.051832864075607,35.880310101169968],[-79.051800102302863,35.880343279793621],[-79.051766244786293,35.880375833362017],[-79.051731361259741,35.880407702358028],[-79.051695521456665,35.880438826363331],[-79.051658795110853,35.880469144959598],[-79.051621254171948,35.880498598628968],[-79.0515829672661,35.880527126052449],[-79.051544005236522,35.880554668614081],[-79.051504387976493,35.880581159607701],[-79.051463597119266,35.880606510021472],[-79.051421586188241,35.88063077936048],[-79.051378498110793,35.88065406039842],[-79.051334472490794,35.880676444108126],[-79.051289651148338,35.880698023264131],[-79.051244175901559,35.880718887937178],[-79.051198185248595,35.880739131805122],[-79.051151823222696,35.880758844938079],[-79.051105229429282,35.880778121013726],[-79.051058545686999,35.880797051005018],[-79.051011912707608,35.880815726786963],[-79.050965467876082,35.880834233926819],[-79.050918385351778,35.880851383036969],[-79.050870161933659,35.880866546111619],[-79.050816170708046,35.880881869299806],[-79.050775302516271,35.880895773743788],[-79.05072151554765,35.88090485882033],[-79.050671594459189,35.880916818355701],[-79.050621962656194,35.880929162611046],[-79.050572594845434,35.880942179115905],[-79.050523263812806,35.88095558945907],[-79.050473892900328,35.880969010614415],[-79.050424407666441,35.880982060456212],[-79.050374732561309,35.880994354155042],[-79.050324793145265,35.881005509584838],[-79.050274514978838,35.881015143718137],[-79.050223822527954,35.881022892455313],[-79.050172778359908,35.881029630944688],[-79.050121478093573,35.881035957618117],[-79.050069964881047,35.88104180576034],[-79.05001828741284,35.88104710955534],[-79.049966491057205,35.881051803188576],[-79.049914620073679,35.881055819043269],[-79.049862722045845,35.881059091304131],[-79.049810842342936,35.881061555058039],[-79.049759026333263,35.881063143589365],[-79.049707321599826,35.881063789280432],[-79.04965577240533,35.881063428120136],[-79.049604322157606,35.881061878967827],[-79.049552772456849,35.881058884128869],[-79.049501177637822,35.881054548133385],[-79.049449605333905,35.881048989927109],[-79.049398122070571,35.88104232845636],[-79.049346795480133,35.881034681765819],[-79.04929569319539,35.881026169703006],[-79.049244880633452,35.881016911214942],[-79.049194425425412,35.881007024346694],[-79.049144397414949,35.880996623537293],[-79.049095152405542,35.880984368392191],[-79.049046755389682,35.880969676638259],[-79.048998956508285,35.880953263117732],[-79.048951504791575,35.880935839968963],[-79.048904150377439,35.880918122033364],[-79.048856643401763,35.880900823250748],[-79.04880874062269,35.880884622406718],[-79.048760421963095,35.880869286970153],[-79.048711852174733,35.880854377034204],[-79.048663185046408,35.880839637465769],[-79.048614569938195,35.880824814035023],[-79.048566159531305,35.880809649807141],[-79.048518105401143,35.880793889650661],[-79.048470559123643,35.880777278434124],[-79.048423673383141,35.880759561927491],[-79.048377501286808,35.880740649077786],[-79.048331850327386,35.880720868941232],[-79.048286627567833,35.880700375679538],[-79.048241744496053,35.88067931534097],[-79.048197112599084,35.880657833072163],[-79.048152644471742,35.880636074920567],[-79.048108252708175,35.880614186032069],[-79.048063849902718,35.88059231245397],[-79.048019346433563,35.880570598431461],[-79.047974656002125,35.880549190011202],[-79.047929734351314,35.880528160216578],[-79.047884827108561,35.880507108768079],[-79.047839947547374,35.880486007719831],[-79.047795052517401,35.880464928292511],[-79.047750094438868,35.880443942609716],[-79.047705027945582,35.88042312099153],[-79.047659807672474,35.88040253556057],[-79.047614387146851,35.880382258439838],[-79.047568724318907,35.880362350033472],[-79.047523089987664,35.880341896304557],[-79.047477590313321,35.880320624114042],[-79.047432088273837,35.880299055375325],[-79.047386447953656,35.880277712001444],[-79.047340533436724,35.880257116806391],[-79.047294207698982,35.880237793505749],[-79.047247333713599,35.880220263110935],[-79.047199776668762,35.880205048435023],[-79.047151399536318,35.880192672291543],[-79.047101824828374,35.880183431357381],[-79.047050911732157,35.880177058896727],[-79.046999012264209,35.880173276266703],[-79.046946481764579,35.880171805724849],[-79.046893676682217,35.880172371331632],[-79.046840952357883,35.880174694444605],[-79.04678866413407,35.880178498224495],[-79.046737166247098,35.880183506734348],[-79.046686238182758,35.880189511856351],[-79.04663536602159,35.880196445287936],[-79.046584560793107,35.8802042313146],[-79.046533832418049,35.880212791518531],[-79.046483191926882,35.880222051086548],[-79.046432648132708,35.880231930699907],[-79.04638221206649,35.880242355545654],[-79.046331895864597,35.880253247204912],[-79.046281707235494,35.880264529964755],[-79.046231657208963,35.880276126308154],[-79.046181757923208,35.880287959619231],[-79.046132017086066,35.880299952382266],[-79.046082450218805,35.880312133433591],[-79.046033060826403,35.880324823639455],[-79.045983828955102,35.880337991461673],[-79.045934734631302,35.880351570210777],[-79.045885754556778,35.880365489593252],[-79.045836866542743,35.880379682019203],[-79.045788049506896,35.880394078095485],[-79.045739281260637,35.880408610232102],[-79.045690539614071,35.880423208134978],[-79.045641803486376,35.880437804213614],[-79.045593050688851,35.880452329976599],[-79.045544260140048,35.880466716030575],[-79.045495408544141,35.880480893884481],[-79.045446473712929,35.880494795046801],[-79.045397436780789,35.880508351024602],[-79.045348272236964,35.880521492426205],[-79.045298961216588,35.880534151660001],[-79.045249480424189,35.880546259333421],[-79.045199807672333,35.880557746954722],[-79.045149812100618,35.880568299112696],[-79.045099332903575,35.880577522893965],[-79.045048443247964,35.880585542652142],[-79.0449972229504,35.880592491751585],[-79.044945748505612,35.880598505360574],[-79.044894098622137,35.880603716844114],[-79.044842352008118,35.880608259567317],[-79.044790586264881,35.880612268698471],[-79.044738878992035,35.880615876702045],[-79.04468729892865,35.880619216045957],[-79.044635538159483,35.880622231862851],[-79.044583516809055,35.880624678123489],[-79.044531366541591,35.880626319536717],[-79.044479212375336,35.880626918110352],[-79.044427185975707,35.880626238553731],[-79.044375414577658,35.880624043775548],[-79.04432402763274,35.880620098486503],[-79.04427309039697,35.880614238624403],[-79.044222130270626,35.880607012359306],[-79.044171129647069,35.880598622492855],[-79.044120223667392,35.880589112239193],[-79.044069544150929,35.880578526616389],[-79.044019228453834,35.880566909739414],[-79.043969409501486,35.880554304823967],[-79.043920222435148,35.880540756887441],[-79.043871801287722,35.88052631004674],[-79.043824338706955,35.880510856076128],[-79.043779888799449,35.88048973986043],[-79.043739034005014,35.880462753892132],[-79.04370126303354,35.880432628434086],[-79.04366584405021,35.88040182163094],[-79.043631188678333,35.880369923054324],[-79.043598273520203,35.880336540284652],[-79.043568559326332,35.880301601597864],[-79.043543509060981,35.880265037974169],[-79.043524565631984,35.880226560481411],[-79.043511101041418,35.880186094537507],[-79.043500725744209,35.880144453079161],[-79.043491018094187,35.880102471586319],[-79.043479557556665,35.880060984636344],[-79.043464021042396,35.880020792521158],[-79.04344626433921,35.87998119515948],[-79.043427838769546,35.879941675545723],[-79.043408642500737,35.879902337366772],[-79.043388570377317,35.879863283409378],[-79.043367516136286,35.879824616460567],[-79.043345375729814,35.879786439306564],[-79.04332204511104,35.879748856535983],[-79.043297401400977,35.879711963730983],[-79.043271090196129,35.8796757456942],[-79.043243172391584,35.879640168153109],[-79.043213855085213,35.87960522382275],[-79.043183348694527,35.879570900910572],[-79.043151863639451,35.87953719303205],[-79.043119607015811,35.879504091100159],[-79.043086733880003,35.879471610381771],[-79.04305233524218,35.879440231597222],[-79.043016378958328,35.879409903381713],[-79.042979344403832,35.879380313710563],[-79.042941709846929,35.879351151461606],[-79.042903955771195,35.87932210641339],[-79.04286655933555,35.879292864741302],[-79.042829744058508,35.879263062236632],[-79.042793005142371,35.879233103766559],[-79.04275571058011,35.879203679958621],[-79.04271722836485,35.879175482340735],[-79.042676923167207,35.879149203342656],[-79.042635098268605,35.879124525594463],[-79.042592557246309,35.879100589862482],[-79.042549437352974,35.879077254592019],[-79.042505876948141,35.879054377326703],[-79.042462016605768,35.879031813807082],[-79.042417992471272,35.879009422479236],[-79.042373942904746,35.878987060887582],[-79.042330008480462,35.878964584773065],[-79.042286326452299,35.878941853483404],[-79.042242906769445,35.878918831864205],[-79.042199587818843,35.878895670490991],[-79.042156295451889,35.878872469435237],[-79.042112961055182,35.878849325161148],[-79.04206951047847,35.878826335036187],[-79.042025874001666,35.878803597327291],[-79.041981980796507,35.878781209400486],[-79.041937758926821,35.878759267720824],[-79.04189348046755,35.878737070972726],[-79.041849319102894,35.878714252262085],[-79.041805076879726,35.878691360556587],[-79.041760556951814,35.878668945724648],[-79.041715560257018,35.878647557635276],[-79.041669889947045,35.878627746156212],[-79.041623346957294,35.878610060254559],[-79.04157573443797,35.878595051600144],[-79.041526796715544,35.878583025824121],[-79.041476623304561,35.878573620566371],[-79.041425503009094,35.878566363439305],[-79.041373721311587,35.87856078205656],[-79.041321565910138,35.878556403130489],[-79.041269323397344,35.878552755176692],[-79.041217282580973,35.878549364907911],[-79.041165645930192,35.87854584379015],[-79.041113985031458,35.878542542579133],[-79.041062216920409,35.878539651479926],[-79.041010372651812,35.878537261514545],[-79.040958486602079,35.878535462802688],[-79.04090658761092,35.878534347268634],[-79.040854711161728,35.878534005031817],[-79.040802888307311,35.878534525311821],[-79.040751152316602,35.878536000031659],[-79.040699493151138,35.878538291293765],[-79.040647816371475,35.878540797953733],[-79.040596119745189,35.878543485762414],[-79.040544412136569,35.878546364631262],[-79.040492700193354,35.878549440867275],[-79.04044098945603,35.87855272167905],[-79.040389287681137,35.878556216077179],[-79.040337602623666,35.878559930368347],[-79.040285939824614,35.878563872662475],[-79.04023430814739,35.878568051068648],[-79.0401827120251,35.87857247279576],[-79.040131160320527,35.878577145051487],[-79.040079659682135,35.878582075945623],[-79.040028215650381,35.878587272686872],[-79.039976837088602,35.878592743384168],[-79.039925530644609,35.878598495245924],[-79.03987430185893,35.878604535481045],[-79.039823151856609,35.878610901042961],[-79.039772061851323,35.878617675760054],[-79.039721029618917,35.878624842508273],[-79.039670057363452,35.878632380556652],[-79.039619142857305,35.87864026557061],[-79.039568288303855,35.878648475016568],[-79.039517492583869,35.87865698636223],[-79.039466756792962,35.878665776173143],[-79.039416080919068,35.878674821015188],[-79.03936546605874,35.878684099256596],[-79.039314911092717,35.878693587463637],[-79.0392644171162,35.878703261300622],[-79.039213984118774,35.878713100037416],[-79.039163613195925,35.878723079338258],[-79.039113304336439,35.878733176670316],[-79.039063056426116,35.87874337851445],[-79.039012876171057,35.878753811953743],[-79.038962764697828,35.878764517546927],[-79.038912723109561,35.878775487182011],[-79.038862754723453,35.878786710943523],[-79.038812860641769,35.878798178916725],[-79.038763041966817,35.878809881186953],[-79.038713300909222,35.878821809641813],[-79.038663638570952,35.878833953465232],[-79.038614057162263,35.878846303643414],[-79.038564557786017,35.878858851163152],[-79.038515142651676,35.878871585207897],[-79.038465813970021,35.878884497665318],[-79.038416571735624,35.878897577719805],[-79.03836742814245,35.878910850604271],[-79.038318460839903,35.878924582182023],[-79.03826967980514,35.878938794982744],[-79.038221076157953,35.878953447549144],[-79.038172637694913,35.87896849662225],[-79.038124357750192,35.87898389894125],[-79.038076226335903,35.878999612147673],[-79.038028232356396,35.879015592982235],[-79.037980366931521,35.879031799086007],[-79.037932621180403,35.879048186297688],[-79.037884992887413,35.87906475371674],[-79.037837489836306,35.879081568939313],[-79.037790103158898,35.879098614843386],[-79.037742821768219,35.879115866195775],[-79.037695635686518,35.879133301368142],[-79.03764853161168,35.879150894226626],[-79.037601500673432,35.879168623142576],[-79.037554531785077,35.879186462882629],[-79.037507612753771,35.879204390917856],[-79.037460732493173,35.879222382916161],[-79.037413882132086,35.879240414545038],[-79.037367049478178,35.879258464176587],[-79.037320264458444,35.879276585880497],[-79.037273582494805,35.879294883290925],[-79.037226985854019,35.879313327571346],[-79.037180456801551,35.879331887181259],[-79.037133977603503,35.87935053148157],[-79.037087528310494,35.879369228932475],[-79.037041092296519,35.879387949795607],[-79.036994651827371,35.879406662530513],[-79.036948188061402,35.879425335596849],[-79.036901683264858,35.879443938355323],[-79.036855118596591,35.879462440167039],[-79.03680847632215,35.879480808589896],[-79.036761746467818,35.879499029205853],[-79.036715011055392,35.879517250706776],[-79.03666828449407,35.879535499226392],[-79.036621553482036,35.879553748630634],[-79.036574806932691,35.879571972784767],[-79.036528029330171,35.879590147357895],[-79.036481210694944,35.879608245313669],[-79.036434335510933,35.879626241419857],[-79.036387392691921,35.879644110442982],[-79.036340368936138,35.879661825347462],[-79.036293250943018,35.879679361801841],[-79.036246026518299,35.879696692770175],[-79.036198681253495,35.879713793019818],[-79.036151198521424,35.879730628305701],[-79.036103506280654,35.87974707607048],[-79.036055608964688,35.879763142621805],[-79.036007533175834,35.879778877523698],[-79.0359593088385,35.879794329438127],[-79.035910963662133,35.879809547027548],[-79.035862526464086,35.879824580756981],[-79.03581402495324,35.879839478387744],[-79.035765489053901,35.879854289483191],[-79.035716946474736,35.879869061804726],[-79.035668404974132,35.879883808869771],[-79.035619785855857,35.879898384688673],[-79.035571091337573,35.879912794668492],[-79.035522332507085,35.879927067647998],[-79.035473524882605,35.879941233365884],[-79.035424682875529,35.879955323363873],[-79.035375818680649,35.879969365579043],[-79.035326946709247,35.879983391553246],[-79.035278080263808,35.879997430124469],[-79.035229233755189,35.880011511933432],[-79.035174402018839,35.880027417903371],[-79.035129022457312,35.880047804256769],[-79.035083410170316,35.880067894128082],[-79.0350376504813,35.880087793847558],[-79.034991824284191,35.880107610647983],[-79.034946015793821,35.880127449057525],[-79.034900308118765,35.880147416308553],[-79.034854784366928,35.880167618732415],[-79.034809528753541,35.880188162660168],[-79.034764623278704,35.880209154423611],[-79.034720153264203,35.880230698551117],[-79.03467619960314,35.880252903177698],[-79.034632781133126,35.880275793535311],[-79.034589692859939,35.88029912092037],[-79.034546892672893,35.880322825858428],[-79.03450435286868,35.880346872305076],[-79.034462050173786,35.880371223313432],[-79.034419956885472,35.880395843740267],[-79.034378049730378,35.880420696638588],[-79.034336303220059,35.880445745061969],[-79.034294690759438,35.880470953866741],[-79.034253187967394,35.880496285204828],[-79.034211768249236,35.880521704833889],[-79.034170408331448,35.880547174905381],[-79.03412908051115,35.880572659374671],[-79.03408776151575,35.880598122195742],[-79.034046436945331,35.880623557964746],[-79.034005135621626,35.880649029765543],[-79.033963873056507,35.880674553817428],[-79.033922661437259,35.880700141834204],[-79.033881517381772,35.880725806429545],[-79.033840455292065,35.88075155841539],[-79.033799488463771,35.880777411307783],[-79.033758631299264,35.880803376819891],[-79.033717898200578,35.880829465763561],[-79.033677304677965,35.88085569075303],[-79.033636864026704,35.880882064403188],[-79.033596590648784,35.880908597525931],[-79.033556498947306,35.880935303637109],[-79.033516604431838,35.880962193548491],[-79.033476919290067,35.88098927987518],[-79.033437472328998,35.88101659145147],[-79.033398259119323,35.881044130081563],[-79.033359257501502,35.881071873238767],[-79.03332044310055,35.881099797495935],[-79.033281790434046,35.881127879426003],[-79.03324327844993,35.881156096502053],[-79.033204881665924,35.881184425297064],[-79.033166576814963,35.881212843284594],[-79.033128340629318,35.88124132613563],[-79.033090148734459,35.88126985132412],[-79.033051976755999,35.881298396323736],[-79.033013802533702,35.88132693680523],[-79.032975600585914,35.881355451143904],[-79.032937347644648,35.881383914109264],[-79.032899021551273,35.881412304977019],[-79.032860589068179,35.881440594012858],[-79.032821968217519,35.881468727159984],[-79.032783196668348,35.881496737756521],[-79.032744343109201,35.881524681665375],[-79.03270547401354,35.881552614750042],[-79.032666659177877,35.881580593774338],[-79.032627967291006,35.881608675502783],[-79.032589464825747,35.881636913996367],[-79.032551220471319,35.881665366920963],[-79.032513304023709,35.881694090139568],[-79.032475783063902,35.881723139515792],[-79.032438725172582,35.881752570012154],[-79.032402036184578,35.881782316759484],[-79.032365424734152,35.881812159014039],[-79.032328905220382,35.881842100377249],[-79.032292497583256,35.881872152560966],[-79.032256226192246,35.881902325473312],[-79.032220110986884,35.881932629924862],[-79.03218417412198,35.881963076725633],[-79.032148438859778,35.881993676685447],[-79.032112927355328,35.882024441515654],[-79.032077659547269,35.882055379323006],[-79.032042658699112,35.882086503621288],[-79.03200794807266,35.882117824319124],[-79.031973547607109,35.882149350424605],[-79.031939480565853,35.882181095451479],[-79.031905767995497,35.882213068407737],[-79.031872391066514,35.882245264791997],[-79.03183919359526,35.88227762696139],[-79.03180617336497,35.882310150409992],[-79.031773350312193,35.882342837836688],[-79.031740741050498,35.882375691039954],[-79.031708363300808,35.882408710916636],[-79.031676235892192,35.882441900166015],[-79.031644375438717,35.882475261487834],[-79.031612800769196,35.882508796680135],[-79.031581529604921,35.882542507541054],[-79.031550579667623,35.882576396770261],[-79.031519969785833,35.882610465264413],[-79.031489716573773,35.882644715723387],[-79.031459837753204,35.882679150846826],[-79.031430352152839,35.882713771531449],[-79.031401278602019,35.882748580476665],[-79.031372747816718,35.88278364705009],[-79.031345352457265,35.882819306387873],[-79.031319024953788,35.882855529666116],[-79.031293591388945,35.882892224996276],[-79.031268877845037,35.882929300489721],[-79.031244712619454,35.882966664257026],[-79.031220920687005,35.883004225310742],[-79.031197328129821,35.883041892663108],[-79.031173762136717,35.883079573523332],[-79.031150048789385,35.883117176903241],[-79.031126014169388,35.883154611814739],[-79.031101486572439,35.883191785466295],[-79.031076532470394,35.883228750116707],[-79.031051371204683,35.883265633696183],[-79.031026051513422,35.883302453317157],[-79.031000618812769,35.883339227895519],[-79.030975121841934,35.883375977247717],[-79.030949607124867,35.883412720289314],[-79.030924123400212,35.883449475034332],[-79.030898716084124,35.883486259497509],[-79.030873433916355,35.883523094396644],[-79.030848324527994,35.883559996844674],[-79.030823434443477,35.883596986658915],[-79.03079881129473,35.883634082754945],[-79.030774501605222,35.883671302246142],[-79.030750555222866,35.883708665850257],[-79.03072701756399,35.883746191582247],[-79.030703936260906,35.88378389835799],[-79.030681409900566,35.8838218258106],[-79.030659470607347,35.883859986550647],[-79.030638048595677,35.883898352655351],[-79.030617078511384,35.883936898904601],[-79.030596489460933,35.883975596474535],[-79.030576216089514,35.884014419243584],[-79.030556189718524,35.884053338387218],[-79.03053634277822,35.884092328685647],[-79.030516606589757,35.884131361314289],[-79.030496913582809,35.88417041015196],[-79.030477196186609,35.884209448176215],[-79.030457386829639,35.884248446562012],[-79.030437416833962,35.884287380089724],[-79.030417218628244,35.88432622083544],[-79.030396711358748,35.88436496341135],[-79.03037594487418,35.884403632140291],[-79.03035501332684,35.88444225493933],[-79.030334011976421,35.884480858824062],[-79.030313034975876,35.884519472612986],[-79.030292176477303,35.884558122420785],[-79.030271531740809,35.884596835263281],[-79.030251194919472,35.88463563905777],[-79.030231260166232,35.884674560820464],[-79.030211822741933,35.884713628468596],[-79.030192976799853,35.884752869018463],[-79.030174815385806,35.884792309486635],[-79.030157359548639,35.884831961585249],[-79.030140073190069,35.884871718191015],[-79.030122879879841,35.884911555888777],[-79.030105839427335,35.884951477367792],[-79.030089009426405,35.884991483515158],[-79.030072447471724,35.885031577922064],[-79.030056211157714,35.885071762377017],[-79.030040359186586,35.885112039569577],[-79.030024949153301,35.885152412189768],[-79.030010038652037,35.885192881124752],[-79.029995686386286,35.885233450866941],[-79.029981949950141,35.885274121402297],[-79.029968888047193,35.885314897223182],[-79.029956557164738,35.885355779217328],[-79.029945016006124,35.885396770975653],[-79.029934333243446,35.885437876988064],[-79.029924765855583,35.885479155777126],[-79.029916298341604,35.885520616359884],[-79.029908797786348,35.885562236236389],[-79.029902129060119,35.88560399470984],[-79.029896157032084,35.885645869280552],[-79.029890748787423,35.885687840152592],[-79.02988576808734,35.885729884826432],[-79.029881080908098,35.885771981703613],[-79.029876553226217,35.885814110086798],[-79.029872049909912,35.885856248377593],[-79.02986743693468,35.885898374977373],[-79.029862579168608,35.885940469189123],[-79.029857341479058,35.885982509414312],[-79.029851590948013,35.886024473152787],[-79.029845192443034,35.886066340608615],[-79.029838227928494,35.886108124379994],[-79.029831179228509,35.886149901861742],[-79.029824065172747,35.886191675753267],[-79.029816876899517,35.886233443352651],[-79.029809607763227,35.886275204661587],[-79.029802248902087,35.88631695697827],[-79.029794792562299,35.886358698501979],[-79.029787229882345,35.886400427432214],[-79.029779553108312,35.886442141968217],[-79.029771755593899,35.886483840308948],[-79.029763828478224,35.886525522456644],[-79.02975576289883,35.88656718390682],[-79.029747551102361,35.886608824661323],[-79.029739186442455,35.886650442919176],[-79.029730660057155,35.886692035978527],[-79.02972196308562,35.886733603841549],[-79.029713088880698,35.886775142904511],[-79.029704015289383,35.886816650468887],[-79.029694635978345,35.886858113942218],[-79.029684955377533,35.886899533323302],[-79.029675010039171,35.886940914912273],[-79.029664836514996,35.886982263206882],[-79.029654471357432,35.887023584507318],[-79.029643952225939,35.88706488331087],[-79.029633315673109,35.887106165917821],[-79.029622598250555,35.887147435924582],[-79.029611835403529,35.887188699631558],[-79.029601065899584,35.887229962437367],[-79.029590324076125,35.887271229741344],[-79.029579648700661,35.8873125060408],[-79.029569076326112,35.887353797636003],[-79.029558642397404,35.887395109025],[-79.029548383467656,35.887436446508055],[-79.029538338304306,35.887477813681137],[-79.02952854124581,35.887519217746416],[-79.029519029952155,35.887560662300125],[-79.029509859807305,35.887602157243307],[-79.029501220223537,35.887643736780042],[-79.029493083510403,35.887685397311834],[-79.029485365485797,35.887727124438321],[-79.029477979752258,35.887768903759316],[-79.029470841019872,35.887810720874612],[-79.029463866213931,35.887852562284635],[-79.02945696782858,35.887894412688318],[-79.029450060573922,35.887936259487837],[-79.02944306137384,35.887978086479684],[-79.02943588383053,35.88801988106637],[-79.029428441545079,35.888061627946442],[-79.029420651441725,35.888103313620228],[-79.029412428229122,35.888144923687229],[-79.029403684400307,35.888186442846269],[-79.029399166336063,35.888207360640479],[-79.029331376169438,35.88838361013174],[-79.025485557681762,35.8883763182858],[-79.024184456414517,35.889511025923362],[-79.02407349657976,35.891000368972158],[-79.026107849658317,35.891765171908666],[-79.02613609527134,35.892009491793345],[-79.025836959073658,35.892134786079019],[-79.02581586382648,35.89214214522557],[-79.025768052341306,35.89215810669873],[-79.025719994723104,35.892173397631161],[-79.025671659943868,35.892187972062366],[-79.025622953842017,35.892201793959366],[-79.025573895264174,35.892214911087294],[-79.025524516350671,35.892227377517422],[-79.025474849241206,35.892239245518631],[-79.025424922753274,35.892250570064377],[-79.025374771241744,35.892261403423113],[-79.025324425738901,35.89227179966673],[-79.025273916169525,35.892281813768534],[-79.025223275780235,35.892291497096117],[-79.025172535602962,35.892300903721384],[-79.025121726669894,35.892310088617748],[-79.025070881119731,35.892319104054359],[-79.02502003109187,35.892328004103135],[-79.024969206509581,35.892336841033895],[-79.024918439512334,35.892345670721149],[-79.024867762238344,35.892354544533163],[-79.024817128136547,35.892363367841959],[-79.024766352113232,35.89237176844474],[-79.0247154374876,35.892379731919625],[-79.024664399770089,35.892387265473893],[-79.024613254470339,35.892394374512016],[-79.024562014883529,35.892401067143005],[-79.024510697626781,35.892407347869899],[-79.024459317102952,35.892413224801601],[-79.024407887713778,35.892418702441596],[-79.024356423862343,35.892423789800063],[-79.024304942165486,35.892428490478927],[-79.024253445941227,35.892432785549985],[-79.024201883084757,35.892436523603671],[-79.024150253609179,35.892439745198857],[-79.02409856639845,35.892442522438323],[-79.024046830336616,35.892444929227665],[-79.023995055415639,35.892447040373391],[-79.023943251626434,35.892448927978194],[-79.023891428960525,35.892450666848795],[-79.023839596301329,35.892452330890713],[-79.023787764746857,35.892453992206455],[-79.023735942072776,35.892455725603149],[-79.023684139376982,35.892457604084619],[-79.02363236665002,35.892459702457664],[-79.023580615012847,35.89246196123765],[-79.023528862256427,35.892464190252653],[-79.023477108382735,35.89246639581188],[-79.023425352285869,35.892468584224773],[-79.023373596184669,35.892470767207826],[-79.023321841188846,35.892472951971307],[-79.02327008508594,35.892475148430108],[-79.023218332308872,35.892477364695075],[-79.02316658064521,35.892479610681036],[-79.023114831204595,35.892481893598308],[-79.023063085097618,35.892484224262361],[-79.0230113445743,35.892486724349482],[-79.022959609650613,35.892489451543383],[-79.022907878089924,35.892492331937142],[-79.022856148762301,35.892495288018537],[-79.022804421646768,35.892498245880219],[-79.022752693398644,35.892501128911562],[-79.022700962889701,35.892503863205398],[-79.022649230098523,35.892506371249198],[-79.022597492789501,35.892508579136091],[-79.022545748726472,35.892510410255291],[-79.022493997889626,35.89251179069938],[-79.022442233513857,35.892512288742729],[-79.022390448806945,35.892511370811818],[-79.022338650545038,35.892509497474101],[-79.022286845511644,35.892507160842918],[-79.022235039381357,35.892504852130557],[-79.02218323782698,35.89250306164783],[-79.022131448740993,35.8925022995342],[-79.022079679049767,35.892503598688144],[-79.021977902657042,35.892508768046497],[-79.021927320707363,35.893392595864356],[-79.021925004465743,35.893433074944859],[-79.021922364099652,35.893479210694679],[-79.021173599052062,35.89324283780789],[-79.020045535754946,35.893277390775395],[-79.019307882064268,35.893465535322406],[-79.018623751298861,35.893350616700197],[-79.018566226674082,35.893332842652569],[-79.017837886403669,35.893107796350613],[-79.0165337985121,35.892946608884522],[-79.016234978920608,35.892815133670972],[-79.015952627327636,35.892719540270654],[-79.015601030012917,35.892454490120173],[-79.014821949340288,35.892288569798055],[-79.014592368150062,35.892273492443309],[-79.014150041851352,35.891993169900232],[-79.013522007668243,35.891577226655599],[-79.012794821397222,35.891253324136564],[-79.012143597384437,35.890891119385664],[-79.01184985969968,35.890772681985254],[-79.011667801343592,35.890620764019758],[-79.011562977230042,35.890532408729946],[-79.012076622112261,35.887539201716841],[-79.010358512996604,35.887545131719094],[-79.007899921560835,35.88758236951135],[-79.003720092941791,35.887645430527385],[-79.002807265121021,35.887659272949364],[-79.002925598674565,35.89040850770337],[-79.002951895963363,35.891069191128096],[-79.003010228219281,35.892444580891365],[-79.003045482575772,35.893256707753302],[-79.003052693338233,35.893456375336321],[-79.003279185075982,35.893574734683071],[-79.003531869193878,35.893706632302433],[-79.003620219003906,35.89375665322531],[-79.003707345037768,35.893808939108332],[-79.003786246590124,35.893860295934907],[-79.003850581841192,35.893904246218924],[-79.003925234570474,35.893957083937345],[-79.003988862400732,35.894005841747834],[-79.003963474042877,35.894024245487245],[-79.003982689806577,35.894039196663556],[-79.004083049235916,35.894121891978976],[-79.004170440929116,35.89420004506038],[-79.00424741034999,35.894274535524019],[-79.004587657739137,35.894637646711821],[-79.00460679844511,35.894613838839724],[-79.005061415344102,35.895098683045617],[-79.005623706544711,35.895722397651795],[-79.0060378734305,35.896181421928766],[-79.006027094624201,35.896216093959843],[-79.006114892941412,35.896313838191332],[-79.007350589085277,35.897687951710822],[-79.007450515642972,35.897806945214171],[-79.007490270765132,35.897861519621749],[-79.007492821094829,35.897864922800274],[-79.007495442347206,35.89786861889921],[-79.00749832501964,35.897872244680009],[-79.007501774991951,35.897877350371893],[-79.007503594147181,35.897880022635206],[-79.007505911811023,35.897882975174277],[-79.007506857940655,35.897884273899379],[-79.00751141136486,35.897890916251519],[-79.00712103465932,35.897908467382649],[-79.006870914193868,35.897938947706081],[-79.004886276085742,35.898070469231016],[-79.004313605756238,35.898108401600801],[-79.002051157965695,35.898620509269819],[-79.001562659472867,35.898731090621169],[-79.001359635194206,35.89878381138476],[-79.000797460703623,35.898929582884541],[-79.000785409541862,35.899165593699266],[-79.000769049980747,35.899491298933533],[-79.000762757932179,35.899611818964573],[-79.000751347849302,35.899835577354999],[-79.000742908209588,35.900001947735255],[-79.000740181995113,35.900002178486268],[-79.000739796492184,35.900002210935654],[-79.000739650266979,35.900002223554829],[-79.00072663289626,35.900003211464856],[-79.000705766808863,35.900109994748227],[-79.000649280659331,35.900399135892897],[-79.000643035289386,35.900431168346387],[-79.000651003500266,35.900430509449215],[-79.000658331643692,35.900593059967015],[-79.00070699179264,35.900591214720535],[-79.000708367649864,35.900591166943279],[-79.000710126797472,35.900591109249469],[-79.000698210321673,35.90083173549997],[-79.000690040764979,35.900997857955517],[-79.000686630495863,35.901067099001011],[-79.00068811728481,35.901213786528636],[-79.000684100460703,35.901214052436508],[-79.000683967526641,35.901214061450332],[-79.000683752616553,35.901214076773762],[-79.000682024473889,35.90121420116364],[-79.00058928634823,35.901220874916767],[-79.000681773176296,35.901626991115563],[-79.000692746941525,35.901626579156883],[-79.000694977244905,35.90179234368653],[-79.000700416728662,35.902200355698092],[-79.000709302686985,35.902864926908869],[-79.000707653235722,35.90375629612106],[-79.000487567711644,35.903839959038756],[-79.000024220794927,35.904142893122611],[-78.999864103424315,35.904236763055614],[-79.000263494641601,35.904248877280402],[-79.001220856645958,35.904965391606872],[-79.002449885886591,35.905311362303877],[-79.00480915742348,35.905975991487708],[-79.003460610603256,35.907136905195699],[-79.003357384483579,35.907225785660046],[-79.003325000466972,35.907253671988443],[-79.002471776660371,35.909104466902917],[-79.001853182202481,35.911114422199937],[-79.000799967182104,35.912063406907897],[-79.000558873547476,35.912280610381821],[-79.000689529929062,35.912372200943743],[-79.001631726820776,35.913039013107458],[-79.002011041263373,35.91330746202344],[-79.002313190991245,35.913521378857503],[-79.001625069596315,35.914490263110814],[-79.001396661229677,35.914812978724711],[-79.001378649097376,35.914821876577051],[-79.001361321928513,35.914845066354964],[-78.999486112484348,35.915008566251728],[-78.999545940103502,35.915734533059187],[-78.999590519886283,35.918793731215615],[-78.99952358294702,35.91879442948111],[-78.999525270929126,35.918905194756285],[-78.999586058356954,35.918914810946674],[-78.999589093240132,35.918915502254031],[-78.999592287680457,35.918915973644623],[-78.999608478485683,35.919999096357714],[-78.999616632305006,35.920523475177383],[-78.999625452157844,35.921050967885733],[-78.999345311346332,35.921154542219952],[-78.999466986653076,35.921405426661444],[-78.999560365962836,35.92167472440061],[-78.999594321836028,35.921831238706815],[-78.999631106438557,35.922054502304313],[-78.999656569232101,35.92325828422544],[-78.999659395778536,35.924093795086804],[-78.999662222262302,35.924692232756541],[-78.999663884819725,35.925398759338115],[-78.999664452644424,35.925553265220643],[-78.999665048128804,35.925718784051483],[-78.999676366755054,35.925925934742111],[-78.999684855677998,35.926031812903808],[-78.999707494139869,35.926179120140596],[-78.999727303661899,35.926317221505748],[-78.999761260736761,35.926462226827717],[-78.999832007654533,35.926747636300497],[-78.999839720163038,35.926803327476435],[-78.999879671501247,35.926988364768803],[-78.99991185500042,35.927132784167668],[-78.999936712615835,35.927371391808521],[-78.999948032166444,35.927585448084997],[-79.001130939193388,35.927562425514608],[-79.00146486998365,35.927555517121903],[-79.001454086997043,35.928314174086182],[-79.00145246027445,35.928501586165474],[-79.001444661483362,35.929082398082379],[-79.001434811751963,35.929748167898715],[-79.001418600931132,35.930354093359426],[-79.001420654038824,35.930522504127715],[-79.001365299095951,35.930527507854997],[-79.001305843909364,35.930535845495569],[-79.00126483999577,35.930542515519235],[-79.001217685637911,35.930549185590735],[-79.001182832148274,35.930555855525178],[-79.001133627676538,35.930565861280925],[-79.00108237309091,35.930579200929344],[-79.001041370309622,35.930590873071232],[-79.00099831626116,35.930602545216111],[-79.00094911179697,35.930617553090627],[-79.000904007591743,35.930630892615852],[-79.000832250456682,35.930655904994929],[-79.000768694982085,35.930680916378819],[-79.000655934913638,35.930724271181873],[-79.00055752577228,35.930765957516172],[-79.000465267015372,35.930812645940058],[-79.000368907867312,35.930864336498828],[-79.000295100284191,35.930911024735025],[-79.000229494329616,35.930951043320185],[-79.000157736743859,35.93099773146789],[-79.00008916513174,35.931044120339969],[-79.000013319252574,35.931088182027743],[-78.999937472180179,35.931135180991092],[-78.99987246095867,35.931180710805776],[-78.999794809559035,35.931233584323572],[-78.999729798168048,35.931282052285134],[-78.999657562296406,35.931345205905934],[-78.999603386691192,35.931395142038873],[-78.999560044822559,35.931436266216977],[-78.99951850921417,35.931487670566121],[-78.999480586296002,35.931537606704701],[-78.999430020806301,35.931611042256854],[-78.999381780253557,35.931681846915531],[-78.999323258662443,35.931770628741162],[-78.999265861795507,35.931856665195824],[-78.999212967456373,35.931941786834741],[-78.999157104117131,35.932027048128461],[-78.999108338825877,35.93210403374966],[-78.999058139432336,35.932179853061626],[-78.99900794099544,35.932260338357857],[-78.998962043577208,35.932329158199778],[-78.998931923607017,35.932404977622298],[-78.998891716346236,35.932500869695509],[-78.998812275556119,35.932624313077007],[-78.998775393500225,35.932666998965082],[-78.99872148770703,35.93273391148454],[-78.998673256051276,35.932791595676974],[-78.998630698190482,35.932861969249963],[-78.998573954575733,35.932958878578113],[-78.998526673769476,35.933064420596935],[-78.998504531502164,35.933124445691128],[-78.998475006874756,35.933208481192892],[-78.99844794252131,35.933288514965518],[-78.99842702907803,35.933352541806791],[-78.998415958367247,35.933385556105812],[-78.998397504720288,35.933470592161243],[-78.998391682447746,35.933508574464049],[-78.998376710597867,35.93360376364744],[-78.998371264530988,35.933670174601559],[-78.998367180045747,35.933757616390444],[-78.99836309575349,35.933835096162646],[-78.998363093892664,35.933926965161653],[-78.998361731119829,35.934018834139202],[-78.998361309872749,35.934133958337625],[-78.998359920180818,35.934241390867605],[-78.998359084077805,35.934320193769999],[-78.998357530391431,35.934371558542068],[-78.998354838801248,35.934464555006151],[-78.998349455508546,35.934546611514762],[-78.998342726932592,35.934622102971325],[-78.998334654224621,35.934688841934147],[-78.998323890299432,35.9347741799752],[-78.998310435529945,35.934859518876664],[-78.998298326443717,35.934930633560725],[-78.998284872108755,35.934992996652035],[-78.998264690071991,35.935083804502447],[-78.998245854680391,35.935166954967194],[-78.998221176396711,35.935256984021379],[-78.998200440505656,35.935329393719357],[-78.998169946067961,35.935416680934104],[-78.998146770843974,35.93548809825694],[-78.998121666191309,35.93555583555861],[-78.998091612940684,35.935631624940441],[-78.998053923711652,35.935708497547203],[-78.998022356789349,35.935770790901842],[-78.997991862608728,35.935833280746671],[-78.997952830999097,35.935913625080005],[-78.997907700367932,35.936000912865246],[-78.997873547375548,35.936073321355678],[-78.997857079967559,35.936104981732349],[-78.997821097406913,35.936167552546735],[-78.997791298113469,35.936218675222072],[-78.997775903573526,35.936245639862676],[-78.99775154163747,35.936287324272946],[-78.997698745721536,35.936377572578699],[-78.99766357093651,35.93643694105743],[-78.99762839489641,35.93649954697316],[-78.997591784636697,35.936564312349638],[-78.997547872770738,35.936637712865618],[-78.997506401300029,35.936709129665481],[-78.997467369250273,35.936774595255507],[-78.997428335902683,35.936844027426375],[-78.997390522858112,35.936908501590807],[-78.997340512597617,35.936990829208838],[-78.997319776623215,35.937028520868111],[-78.997163645469286,35.937297325540079],[-78.997133150399335,35.937349895494791],[-78.997094117737092,35.937415360949728],[-78.997065639673082,35.93746730543532],[-78.997037241514121,35.937515288729045],[-78.99698571964349,35.937605208644769],[-78.996951519141831,35.93766319433044],[-78.99691294699835,35.937734657840778],[-78.996879809088213,35.937796475831121],[-78.996843422551407,35.937863049853682],[-78.996820030378913,35.93790796070904],[-78.99679957904182,35.937938441024087],[-78.996788215719832,35.937967351521209],[-78.996766774400072,35.938004159786445],[-78.996745331640227,35.938048718270899],[-78.996721507140464,35.938093275785704],[-78.996700065440336,35.938137833359427],[-78.996676240729798,35.938186266426101],[-78.99665718062009,35.938232760935342],[-78.996633355532794,35.938288943313445],[-78.9966238249703,35.93832381499714],[-78.996609529355155,35.938370310529493],[-78.996597617210554,35.938401306582023],[-78.996592851262164,35.938434241514813],[-78.996583320828975,35.93846523853297],[-78.996576171870217,35.938502047156845],[-78.99656902409555,35.938536918900212],[-78.996564258045098,35.938571790709815],[-78.996554725684007,35.938647345866748],[-78.996547576613253,35.938686092267154],[-78.99654757404609,35.938746149048889],[-78.996545189658733,35.938808143542524],[-78.996545187669881,35.938854639462363],[-78.996549948614458,35.938939882114639],[-78.996552326965102,35.939019312256505],[-78.996559469873532,35.939125865147375],[-78.996564229942663,35.939232417966501],[-78.996566608233664,35.939313785879662],[-78.996573752419749,35.939391279264875],[-78.996576131628387,35.939451336097463],[-78.996576128425431,35.939526891497842],[-78.996568978749437,35.939604384475551],[-78.996561825807134,35.939732248013826],[-78.996554676429838,35.939801990766298],[-78.996547526759926,35.939852361125396],[-78.99654514341718,35.93988917076414],[-78.996535611630492,35.93994728946894],[-78.996561809395388,35.940117775171778],[-78.996554660975605,35.940164270867271],[-78.996542745778285,35.94023401347318],[-78.996526066580742,35.940313443937207],[-78.996509386325798,35.940390935715754],[-78.996495089606043,35.940452929829007],[-78.996487381044943,35.940482445143068],[-78.996475117612647,35.94052945351585],[-78.996460224720664,35.940587857755716],[-78.996445052491509,35.940646661256984],[-78.996422487667402,35.940731298290835],[-78.996403919976885,35.94080357060173],[-78.996384167205292,35.940881302903477],[-78.996361975915065,35.940962475360998],[-78.996333014468391,35.941077439771078],[-78.996311631284428,35.941153418990126],[-78.99629975256407,35.94119334138324],[-78.996283121516882,35.941252579229776],[-78.996267283142615,35.941306667111661],[-78.996243524343228,35.941389729497018],[-78.996225605025145,35.94145543136095],[-78.996207175761654,35.941522856475913],[-78.996188747929239,35.941582790044123],[-78.99613530346835,35.941776076819131],[-78.996065274339145,35.942020306765222],[-78.995980501001583,35.94231997554548],[-78.995952857308637,35.942415869410297],[-78.995919821325373,35.942535604964448],[-78.99587895151403,35.942674906388618],[-78.995839654251981,35.942815485877368],[-78.995792524383219,35.942971754766106],[-78.995779623295064,35.943031688430089],[-78.995761193692388,35.943091621899605],[-78.995739079162462,35.943165040365145],[-78.995728021050724,35.943206994212801],[-78.995704062615772,35.943292399785356],[-78.995676418181219,35.943389791499314],[-78.995648774707519,35.943488682051637],[-78.995632187168752,35.943545619663247],[-78.995621129895284,35.943590569388853],[-78.995602699721019,35.943656496411492],[-78.99558242699959,35.943729914899293],[-78.995507561230099,35.943988055605779],[-78.995514232703698,35.944044567733144],[-78.995521600304272,35.944100007347529],[-78.995528968744637,35.944140462988891],[-78.995549233277004,35.944218377675838],[-78.995610995635232,35.944394542734997],[-78.995680796149415,35.944530782630224],[-78.995745945611333,35.944634854327269],[-78.995797134926036,35.944701082987137],[-78.995946053512867,35.944837325412081],[-78.995957680917058,35.944983024035373],[-78.996020504048744,35.945075742827143],[-78.996060058019282,35.945164676313262],[-78.996134500283617,35.9453808371468],[-78.995660676264308,35.945573118889229],[-78.995755266706666,35.946033843220611],[-78.995949654600153,35.946296829361003],[-78.99603497259082,35.946414430776784],[-78.996219537935474,35.94666555965167],[-78.996604068734797,35.947254724756583],[-78.996925291884054,35.947729082389095],[-78.997163466205606,35.94808321770256],[-78.997173570116999,35.948097939610427],[-78.997361771021431,35.948306793473151],[-78.997657631564394,35.948636037150479],[-78.997743814020168,35.948697281426078],[-78.997891917098571,35.948805629036691],[-78.998069251743217,35.948938519052156],[-78.998272415384335,35.94909409283359],[-78.998813084919362,35.949432784146545],[-78.999590697193526,35.949954797241247],[-78.999785433786727,35.949886260975333],[-79.000014595264389,35.950004001118387],[-79.000911773405932,35.951070444700505],[-79.000992324085729,35.951199224768388],[-79.00156191904891,35.952211733098594],[-79.001657369691358,35.952381444506777],[-79.002386106873274,35.953028463903522],[-79.003032551887387,35.953685799713554],[-79.003271145157726,35.95392809046637],[-79.003412500584176,35.954075953731198],[-79.003498034264936,35.954151348566064],[-79.004133682419649,35.954610302402997],[-79.004366875549124,35.95477206915286],[-79.004771137942086,35.955048755693305],[-79.004982722641287,35.955170261559466],[-79.005352775150598,35.955408150695561],[-79.005753440087602,35.955651161970685],[-79.006237843476057,35.955945407654347],[-79.006615106436087,35.956195736600947],[-79.00708511438026,35.956531705637822],[-79.007629859639451,35.956921103686867],[-79.00784325096123,35.957001612056359],[-79.008225912920381,35.957136277917705],[-79.008529179862606,35.957307607094137],[-79.008894064807151,35.957507362129192],[-79.009348311117705,35.957761593842108],[-79.009832346297998,35.958015822346368],[-79.010160004928778,35.958203467750451],[-79.010778095077285,35.958584814016248],[-79.01112065136617,35.958784563368795],[-79.011537681391459,35.959038791099402],[-79.012386628867006,35.959468538586101],[-79.012873098706294,35.959697136466374],[-79.013997981944428,35.960296895177954],[-79.014698796848023,35.960806390851211],[-79.015297353921071,35.961048568517306],[-79.015318051882574,35.961055948353668],[-79.01533621550962,35.961062986016259],[-79.01535437917228,35.961070194019129],[-79.015372542903719,35.961077746310423],[-79.015390284325136,35.961085642042065],[-79.015408025782691,35.961093709015387],[-79.015425344930378,35.961102119429356],[-79.015442664147372,35.961110873230623],[-79.016630092176172,35.961678663296418],[-79.017217654288473,35.961968720965473],[-79.017735205053057,35.962221075286109],[-79.01823797196036,35.962467418927076],[-79.018637228988126,35.962659684788406],[-79.01882946532173,35.962755817913873],[-79.019169592998779,35.962990163105296],[-79.019576266164691,35.963260557089235],[-79.01996230778785,35.963516442379444],[-79.020178609641931,35.963665606420854],[-79.021305766659538,35.964458796031394],[-79.022612281312249,35.964600188015204],[-79.023535382055627,35.965145815197772],[-79.023700146781181,35.965243303191833],[-79.023975601521556,35.965406011439896],[-79.024248944741458,35.965566659140393],[-79.024518486846233,35.965725417891029],[-79.02466593208247,35.96581209172686],[-79.024777055255171,35.965909417823646],[-79.025019582389859,35.966122265176914],[-79.025052988058533,35.96615137520795],[-79.02507915842709,35.96617658686003],[-79.025128960915211,35.966221726441205],[-79.025282483273514,35.966294258021897],[-79.025563616631828,35.966424938831167],[-79.026041685356347,35.966653309659307],[-79.026555116503943,35.966896363638405],[-79.02700161518149,35.967094385000223],[-79.027610752760609,35.967365237726234],[-79.027975042420465,35.967521642869009],[-79.028663419628231,35.967758167471636],[-79.029374045055206,35.968096053765265],[-79.029664700979183,35.968188349717181],[-79.031264954508472,35.968543847392823],[-79.033528383274657,35.968807620271292],[-79.033720739086121,35.968833567518416],[-79.034470507345176,35.969103859344337],[-79.035184858607778,35.969187088269059],[-79.03550976187779,35.969323657554376],[-79.037067275493811,35.969412966084974],[-79.038778881614249,35.969306129114187],[-79.041367272575741,35.968891799893193],[-79.041976726808016,35.968704091675598],[-79.042552396096525,35.968537855337978],[-79.042783834702007,35.968450206692374],[-79.04313477900962,35.968291775526808],[-79.043430819988231,35.968157916544421],[-79.044430022058179,35.967732426191212],[-79.04553735302153,35.9673125509794],[-79.04763180249131,35.966819815067801],[-79.048032653855984,35.966794927721274],[-79.050423956498307,35.966864663982243],[-79.051553502756761,35.966898513212819],[-79.052768903845205,35.967092504596984],[-79.053465206367221,35.967347500237494],[-79.054195712210458,35.967576206996419],[-79.055001824897161,35.967792684574562],[-79.055564203758919,35.968002575032898],[-79.055857429765325,35.968101847410779],[-79.056239384944604,35.9682312955768],[-79.057353989836429,35.968608486967376],[-79.057766017151224,35.968841963042806],[-79.057924454781272,35.968884122120038],[-79.058557367086934,35.969058079747334],[-79.058873801455547,35.969113036552343],[-79.0592586773422,35.969181522751569],[-79.059520611679673,35.969224829994218],[-79.060379906369946,35.969342348231258],[-79.061030933057765,35.96943867818274],[-79.061160971137582,35.969345854878902],[-79.062422069752714,35.969563119033509],[-79.063037771441628,35.969857077025011],[-79.063273687291897,35.970112776026866],[-79.064192479682873,35.971188290908465],[-79.064602091267233,35.971529053445579],[-79.06503194017121,35.971817779981137],[-79.065195936389586,35.971929463242425],[-79.065471488544588,35.972080917782577],[-79.065660828363065,35.972189323276595],[-79.065822290321265,35.972299462246873],[-79.066039533243909,35.972432403924422],[-79.066192113880561,35.972530356458925],[-79.066387383412831,35.972653867585556],[-79.066550955692605,35.97276074178609],[-79.066684516370515,35.972843594968801],[-79.066826540246112,35.972944815100213],[-79.066947010102027,35.973032825978336],[-79.067072979704804,35.97313147875284],[-79.067213328784732,35.97324815181819],[-79.067328318420508,35.973350274890855],[-79.067349030392393,35.973364953459836],[-79.067369319958701,35.973379668309477],[-79.067389609572217,35.973394430923555],[-79.067409899379228,35.973409416150702],[-79.067430190346187,35.973424453647993],[-79.067450480254166,35.973439541614262],[-79.067470347758459,35.973454668565516],[-79.067490637900136,35.973470017896453],[-79.067510505771622,35.973485565739324],[-79.067530373527845,35.973500966670059],[-79.067550241450817,35.973516557767759],[-79.067570109387532,35.973532156072409],[-79.067589977330385,35.97354775257115],[-79.067609422964367,35.973563501617008],[-79.067629291040433,35.973579238709029],[-79.067648736794695,35.973595113026505],[-79.067668182381254,35.973610778243525],[-79.067687629194552,35.973626575043781],[-79.067707075014823,35.973642500724679],[-79.067726520657402,35.973658205588542],[-79.067745543965714,35.973674033257723],[-79.067764989693089,35.973689821033105],[-79.067784013095135,35.973705742429388],[-79.067803036481976,35.973721636784113],[-79.067822059831613,35.973737477960249],[-79.067989295512291,35.973865789643774],[-79.068037612296351,35.973908457339483],[-79.068079816512139,35.973947304285872],[-79.068179716810718,35.97405233165987],[-79.068197051203654,35.974068976760286],[-79.068214808049859,35.974085620720857],[-79.068232142601957,35.974102437059521],[-79.068249899607665,35.974119252258191],[-79.068267234174314,35.974136068591598],[-79.068284568893105,35.974153056165804],[-79.068301481026879,35.974169872730364],[-79.068318815760122,35.974186860299497],[-79.068335728053142,35.974203848102476],[-79.068353062946741,35.97422100781116],[-79.068394922753527,35.974263906997905],[-79.068411835224637,35.974281066934488],[-79.068428747848202,35.974298398111962],[-79.068445238030904,35.974315729523731],[-79.06846172822145,35.974333061834493],[-79.068478218563598,35.974350564484972],[-79.068494708913732,35.974368068034359],[-79.068511199271001,35.974385571581401],[-79.06852768963536,35.97440307512619],[-79.068543757557521,35.974420578004327],[-79.068560248082434,35.974438253689065],[-79.068576316164908,35.974455928707414],[-79.068591961805481,35.974473603960767],[-79.068623676957912,35.974509298512395],[-79.068647356896008,35.974536068578907],[-79.06866300271416,35.974553915967249],[-79.06867864868498,35.974571934596817],[-79.068694294662833,35.97458995322431],[-79.069143379686693,35.975104775654849],[-79.069692992396014,35.975592409551915],[-79.069805920323432,35.975745494304697],[-79.069891353090625,35.975855843329491],[-79.070129676110597,35.976405639351768],[-79.07050408183818,35.97700754855591],[-79.070484516541143,35.977338757843505],[-79.071375159539699,35.978388994379443],[-79.072189218772778,35.979753641897346],[-79.072534733924314,35.97967479604214],[-79.072616178003415,35.97974668596931],[-79.072682103256739,35.979739328364865],[-79.072767605461976,35.979741798329997],[-79.072868448590171,35.979719490121028],[-79.073034346596145,35.979655755288036],[-79.073126250482602,35.979601053015088],[-79.073231854987881,35.979587521918759],[-79.07334278739539,35.97956408066711],[-79.073493774532281,35.979482808950195],[-79.073592152754102,35.979500074105871],[-79.073638656248733,35.97939331384525],[-79.07370499730682,35.979341442138661],[-79.073867575970809,35.979285960283029],[-79.074017818439856,35.979309100703922],[-79.074161256539128,35.979319624453396],[-79.074287765136958,35.979312618530564],[-79.074410054467194,35.979274301889305],[-79.074568429164643,35.979306757711967],[-79.074726177696661,35.979463958918984],[-79.074913963795154,35.979577099566832],[-79.074923826534146,35.979652902840797],[-79.074925615087878,35.979729281575345],[-79.075126632252406,35.979802263570534],[-79.075389922661401,35.979818438821887],[-79.075571780565028,35.979721127042922],[-79.075807560357589,35.979636278673311],[-79.075946035903058,35.979626662512665],[-79.076137093696218,35.979608909120806],[-79.076206581426931,35.978616693824094],[-79.076277840213663,35.976892296668289],[-79.07631948538139,35.976191232966791],[-79.07635261577488,35.975544555874471],[-79.07635247537911,35.975396186186444],[-79.077163500893349,35.975390698664604],[-79.079458324542713,35.975441730363336],[-79.081766660169251,35.975484468582771],[-79.084048805171946,35.97552632318142],[-79.084225818442192,35.975529804550803],[-79.084549848182874,35.97553644300158],[-79.084596834997825,35.969605568100079],[-79.08457097527473,35.967911989828039],[-79.084574136650062,35.967705095260065],[-79.084530115595427,35.964806917370396],[-79.084777223646654,35.964811549005098],[-79.08503023444959,35.964805875246178],[-79.085843755657692,35.964787436267699],[-79.086050726009674,35.964782823822333],[-79.086647561707537,35.964769343054087],[-79.087324227279609,35.964753913212462],[-79.087848834186516,35.964742024809226],[-79.0881254982759,35.964735812082317],[-79.088368371244201,35.96473030996647],[-79.088735003728402,35.964721968576796],[-79.088736459146787,35.964126872525199],[-79.088733394358769,35.964021570411624],[-79.088327375628637,35.963732846987554],[-79.088197598796356,35.963624134043762],[-79.088081694887904,35.963505411191804],[-79.08799659479125,35.963399865352201],[-79.087936318214119,35.963293123594909],[-79.087895994326033,35.96319592467227],[-79.087819803831138,35.962927418081733],[-79.087761611944671,35.96269619097184],[-79.087708068702469,35.962506643130283],[-79.087606356218771,35.962230473909898],[-79.087526709528802,35.96206392025676],[-79.087434534260694,35.961914377367961],[-79.087305693051775,35.961755688237574],[-79.087124677428847,35.961581378161576],[-79.08687470364633,35.961382345044193],[-79.086182261946661,35.960816459483738],[-79.085751303649729,35.960462778242331],[-79.084259919795727,35.959228801716094],[-79.083843492978559,35.958875102607763],[-79.083428465164431,35.958513567993428],[-79.083047488667617,35.958129603670514],[-79.082782932373973,35.957837467083145],[-79.082419460297629,35.957446585877094],[-79.08225614832719,35.957242682417011],[-79.082130501119494,35.957062555492151],[-79.082009003713083,35.956851824225311],[-79.081933497743137,35.956627460636298],[-79.081871976692597,35.956414259966166],[-79.081789458957232,35.95614292223231],[-79.081635477166259,35.955549791335656],[-79.081417193873008,35.954740684966652],[-79.081131815233789,35.953744610608759],[-79.0808380176626,35.952687336059725],[-79.080796018351236,35.952507152041797],[-79.080724673817031,35.952255582780232],[-79.080611456833083,35.951949637492724],[-79.080477352971315,35.951664107418516],[-79.080347450417236,35.951398975987161],[-79.080158976791978,35.951106680144171],[-79.080363717956857,35.950936534412435],[-79.080614416552024,35.950725555708871],[-79.081015519495409,35.950375067075292],[-79.081483461125089,35.949959928028591],[-79.08180935746735,35.949680891548169],[-79.08196812206711,35.949541375328387],[-79.08212269579289,35.949391661814232],[-79.082256354698913,35.949238561621513],[-79.082381644078154,35.94907866668715],[-79.082511072281619,35.948877965606805],[-79.082602896450595,35.948707892232648],[-79.08267798937915,35.948534429541859],[-79.082698761895344,35.948401806820122],[-79.082727898554836,35.948269178420546],[-79.083049024434629,35.947429103591112],[-79.083177049291137,35.947429333686038],[-79.083280483479783,35.947160605519358],[-79.083178115407762,35.947160247196187],[-79.083074074814192,35.947161039972393],[-79.082307547871793,35.947163149052194],[-79.081453648236646,35.947167856891618],[-79.081459495273805,35.946686932293481],[-79.081468684431172,35.946170120471258],[-79.081493256985382,35.944164691792608],[-79.081545697025419,35.942990253453431],[-79.080823679236275,35.941399463001538],[-79.080196886868293,35.939994380286542],[-79.076793827162604,35.940002292695667],[-79.076323882462631,35.93999820174016],[-79.076297376632766,35.939463022247359],[-79.076288598504817,35.939287944279883],[-79.076259122882419,35.938741015425833],[-79.07624113605857,35.938392242231785],[-79.076194771727586,35.937515181544626],[-79.076137579551329,35.936633485639923],[-79.076073089198829,35.935656064757708],[-79.076047373684034,35.934869505493083],[-79.076004485811367,35.934440011962273],[-79.075947923396669,35.934071256127822],[-79.0757598515154,35.933336838950837],[-79.075590789000969,35.932888907963729],[-79.075434062479587,35.932547405761206],[-79.075310292598004,35.932362040592636],[-79.07493014227812,35.931737223165335],[-79.074265788944061,35.930609920233593],[-79.074023816130349,35.930184530033912],[-79.074000688417016,35.930141059206001],[-79.073969034618202,35.930074862842098],[-79.073943465662296,35.930020521140847],[-79.073919118950684,35.929972109224337],[-79.073888687988372,35.92991480699083],[-79.073853386455085,35.929847624077262],[-79.073825390334775,35.929795261260182],[-79.073792482304782,35.929686568562254],[-79.073770548647204,35.929620365357465],[-79.073757124070298,35.929557122271461],[-79.073749798192324,35.929518583645773],[-79.07374003578056,35.929473127236271],[-79.073731487936328,35.929427670992744],[-79.07372170388814,35.929358496067614],[-79.07371069156234,35.929275485173335],[-79.073697238427968,35.929179628664286],[-79.073694788163778,35.929158875981628],[-79.07369475749249,35.929125273851284],[-79.073698363668285,35.929081786804446],[-79.073697683575617,35.929046933163946],[-79.073703737458175,35.928839319370539],[-79.073795034073285,35.927950003032343],[-79.073981892291982,35.926239420071717],[-79.07405430585024,35.92587532932302],[-79.074166718969181,35.925173980870596],[-79.074173037481088,35.92515835302676],[-79.074188208271465,35.925127780784315],[-79.074195371156961,35.925112152425768],[-79.074198311659984,35.925096011091178],[-79.074199140893697,35.925079527645465],[-79.074197014794166,35.925063045996318],[-79.074193200249709,35.925046908768067],[-79.074187275071054,35.925031116217248],[-79.074180505829858,35.925015667573703],[-79.074173313293073,35.925000219186941],[-79.074167388121737,35.924984426634921],[-79.074157664504995,35.924970009969016],[-79.074145409014776,35.924956969320355],[-79.074132731495098,35.924944099272146],[-79.074119631948605,35.924931402528088],[-79.074106954437042,35.924918532477022],[-79.074097230681858,35.924903944559468],[-79.074091727879932,35.924888323894713],[-79.07408791320681,35.924872014514243],[-79.074084098693206,35.924855877281495],[-79.074079861991862,35.924839740304726],[-79.074082379846658,35.924823084586585],[-79.074087431622232,35.924807285366043],[-79.074101352673495,35.92479508595369],[-79.074108938207573,35.924779971983028],[-79.074113989660049,35.924763829366647],[-79.074116085631076,35.924747516396863],[-79.074112692198298,35.924731378908518],[-79.074106766901366,35.924715415105368],[-79.074104218798951,35.924699104955309],[-79.074109692750937,35.924683305476819],[-79.074117700461272,35.924668191248571],[-79.074122752062195,35.92465221987775],[-79.074121470365867,35.924635737711881],[-79.07411638945041,35.924619773395804],[-79.0741049779229,35.924606216686179],[-79.074091878434757,35.924593519036321],[-79.074080467072193,35.924580133570849],[-79.074072431483771,35.924564857835392],[-79.074066084176394,35.924549065532098],[-79.074068602497078,35.92453292445348],[-79.074072809409074,35.924516610201955],[-79.074075327570355,35.924500297876428],[-79.074074468073476,35.924483815452852],[-79.074075718405439,35.924467331748623],[-79.074078658750906,35.924451018265174],[-79.074085399567579,35.924435561412025],[-79.07409805320637,35.924422504731595],[-79.074103950272445,35.924407734277601],[-79.07409844718795,35.924391770215777],[-79.074087879596277,35.924377697448335],[-79.074075202177539,35.924364828292646],[-79.074060837276008,35.924353333738452],[-79.074044784733715,35.924343041637258],[-79.074025781454793,35.924337730997692],[-79.074005515710311,35.924336885251961],[-79.073985249808459,35.924335867354969],[-79.073965404521687,35.924333133127369],[-79.073946822650271,35.92432696328266],[-79.07392950482587,35.92431804551174],[-79.073913030592877,35.924308269191251],[-79.073896978550209,35.924298492612898],[-79.073881348069392,35.924288028987768],[-79.073866561179443,35.924276705912554],[-79.073853461782264,35.924264008235482],[-79.07383698646133,35.924254231905223],[-79.073819668978658,35.924245657512955],[-79.0738006652671,35.92423983219701],[-79.073780820636969,35.924237783827088],[-79.073760554606366,35.924236594646146],[-79.073740708724401,35.924233173592903],[-79.073721283617971,35.924228205653982],[-79.073702279917583,35.924222380322711],[-79.073683697465,35.924215523648577],[-79.073665115485952,35.924209182514105],[-79.073645690546954,35.924204386711075],[-79.073625844364642,35.924200622244584],[-79.073605999122449,35.924197887057133],[-79.073585732009548,35.924195496416907],[-79.07356588708285,35.924193104617494],[-79.073545619815533,35.924190541822604],[-79.073526195826247,35.924186776184179],[-79.073506770589134,35.924181637865772],[-79.073487767226922,35.924176154994157],[-79.073468340588335,35.924169470943532],[-79.073448913328207,35.924162100100645],[-79.073430334815157,35.924159536270345],[-79.073413453944028,35.924166757715177],[-79.073398266807601,35.924179472454838],[-79.073385190440078,35.924192014676606],[-79.073375070930354,35.924206272092874],[-79.073365796256681,35.924221043641836],[-79.073356521891611,35.924236158584542],[-79.073346824713838,35.924250587892359],[-79.073332480364201,35.924261585143277],[-79.07331391118602,35.924269323131298],[-79.073294917635948,35.924274657608272],[-79.073274651914971,35.92427381174118],[-79.073254388062836,35.92427502533657],[-79.073234121563871,35.924273321427087],[-79.073213858023493,35.924274879311604],[-79.073194017602461,35.924277467123133],[-79.073174177802628,35.924280741720501],[-79.073154338467432,35.924284530955788],[-79.073134493842701,35.924282482480855],[-79.073114647198139,35.924278202388855],[-79.073093960380234,35.924278559076193],[-79.072921179142398,35.924325787725707],[-79.071661665489088,35.92306639117426],[-79.071553052825607,35.922957116531229],[-79.071533122035916,35.922937442945511],[-79.071047083044419,35.922474537595868],[-79.0705784485328,35.922011620170181],[-79.068885482981869,35.9203222850362],[-79.068267396158177,35.919705646629659],[-79.068012061734194,35.919402755005038],[-79.067840595770392,35.919053404668055],[-79.067796680756572,35.91871762983979],[-79.06781317977412,35.918381821398071],[-79.067937076338893,35.918045950467324],[-79.0681415485559,35.917742793977247],[-79.068260762151013,35.917622713764153],[-79.068787047637116,35.917105948581451],[-79.068757338822081,35.916925148146198],[-79.068684413752266,35.916461626687024],[-79.068110293764761,35.916521135108972],[-79.068089028945451,35.916388199662791],[-79.068067839215345,35.916253565211917],[-79.068046126589678,35.916109732362628],[-79.068032552364528,35.916027897277367],[-79.068024940174098,35.915978860821284],[-79.067990532833107,35.915759214856728],[-79.067982557993403,35.915707083526513],[-79.067961370027433,35.915574121837786],[-79.06792729404907,35.915356791081592],[-79.067906497495471,35.915225282046372],[-79.067884853366721,35.915088451287389],[-79.067865753582566,35.914966556373258],[-79.067856842378006,35.914911446738763],[-79.067841139631938,35.914811870657942],[-79.067816097196797,35.914650832793043],[-79.067783842820077,35.914447216920422],[-79.067770262310304,35.914361204225969],[-79.067725699623566,35.914078099428949],[-79.067708297730064,35.913965475195113],[-79.067703629657771,35.913936117876325],[-79.067688763969727,35.91382881531586],[-79.067672206012375,35.913715675955004],[-79.06757089928746,35.913721399480494],[-79.067424008117229,35.913734017840582],[-79.067275850649963,35.913746807969197],[-79.067131066509305,35.913756505497794],[-79.067109002528326,35.913620361551146],[-79.067104758108016,35.913592548804488],[-79.06708777949126,35.913481469962761],[-79.067080564773534,35.913435115458533],[-79.067066985040086,35.913348930505165],[-79.067055949228958,35.913276136597581],[-79.067045339019955,35.913208836791028],[-79.067030909691013,35.913116128668285],[-79.067024119161417,35.913072177694339],[-79.067006720489559,35.91296333067519],[-79.067003326091623,35.912942385374372],[-79.066982106801134,35.912806240900416],[-79.066978287014905,35.912781347226016],[-79.066960461216397,35.912666319291858],[-79.066939241786073,35.912529831400548],[-79.066681337926681,35.912547490317046],[-79.066669004473368,35.912437611173694],[-79.066656673152536,35.912328932558275],[-79.066634979947665,35.912130462285432],[-79.066323041897419,35.912143686692751],[-79.066294607311264,35.911959470504605],[-79.066264901138112,35.911768730458434],[-79.066208460216146,35.911405620846949],[-79.066104625257509,35.911413404911286],[-79.065930723272515,35.911427067206617],[-79.065900881681799,35.911069093077792],[-79.065896447193367,35.911007267900629],[-79.065796189051468,35.911017736556069],[-79.065594271570191,35.910629965953447],[-79.065414814756778,35.910315074008153],[-79.065237492466139,35.909999312667075],[-79.064944729929806,35.909382506013721],[-79.064800476274058,35.90906499041607],[-79.064649824594241,35.908747478001416],[-79.064500239881895,35.908429963899131],[-79.064347455684555,35.908112452165739],[-79.064194674486316,35.907795808158767],[-79.063914719523765,35.907169446093278],[-79.063878611088853,35.907070321548709],[-79.063903781348074,35.906827560114728],[-79.063998820515152,35.906831938410768],[-79.064454693128084,35.906844052628344],[-79.064539113951014,35.906846237831168],[-79.064727372542706,35.906851285458046],[-79.064956154240093,35.906857341419375],[-79.066040541947842,35.906885926431585],[-79.066228540396466,35.906574875465097],[-79.066203154545832,35.906502775882181],[-79.066626889866455,35.906446220026176],[-79.066961035141787,35.906262141270759],[-79.067248444581608,35.906219568720658],[-79.067269551609186,35.906222475509658],[-79.067589510951734,35.906238604190456],[-79.067588203722394,35.906189670392443],[-79.06775280496376,35.906172234401524],[-79.067868447694806,35.906159806038538],[-79.067867724090263,35.906301972795369],[-79.067924273346151,35.906288719192837],[-79.068096453266151,35.90624861431867],[-79.068260614720828,35.906210230671952],[-79.068426464240275,35.906171673707945],[-79.068597799623888,35.906131739845819],[-79.068765758693559,35.906092495340616],[-79.068960161763414,35.90588170749411],[-79.069039021581617,35.905798559012183],[-79.06950075701549,35.90527340587672],[-79.069616716157213,35.905141472570875],[-79.069688400598665,35.905060044725417],[-79.069822070593588,35.904908184061661],[-79.069876043340116,35.904846856319409],[-79.070152234956467,35.904532655246605],[-79.070355899616089,35.904301255892257],[-79.070642207513856,35.903975715701606],[-79.070127253515594,35.903958681561008],[-79.06971360434359,35.903946564414859],[-79.069714004785027,35.90392149618431],[-79.069714402113405,35.903892821833104],[-79.069756058800891,35.90325837010694],[-79.069765224049164,35.90311894553129],[-79.069818967599986,35.902308151636717],[-79.069824382238778,35.902224531699098],[-79.06998815934206,35.902240059294151],[-79.069874334020753,35.901423011419979],[-79.069891214020629,35.901419911173264],[-79.069911048040694,35.901416293684576],[-79.069927506119242,35.901413364922767],[-79.069967174746168,35.901406816725213],[-79.069987009206358,35.901403714770936],[-79.07000684351587,35.901400440664048],[-79.070026677972194,35.901397337802045],[-79.070046934494542,35.901394235595774],[-79.070066768947825,35.901391132727248],[-79.070086603548972,35.901388202004846],[-79.070106438000067,35.901385100031149],[-79.070126272598287,35.901382169302302],[-79.070146529411218,35.901379410476899],[-79.070166364006596,35.901376479741522],[-79.070186198749369,35.901373720250994],[-79.070206455558107,35.901370961415651],[-79.070246125037599,35.90136544331957],[-79.07026638199126,35.90136285572234],[-79.070306051761605,35.901357681004264],[-79.070326308711387,35.901355093397044],[-79.070346143743279,35.901352678179222],[-79.070366400690546,35.901350090565387],[-79.070386235719226,35.901347674439741],[-79.070406492963286,35.901345430216665],[-79.070426327990404,35.901343014985791],[-79.070446585232176,35.901340770756093],[-79.070466420406447,35.901338526766736],[-79.070486677645931,35.901336282530401],[-79.070506935034629,35.901334210439956],[-79.070526770205532,35.90133196644085],[-79.070547027591331,35.901329893442508],[-79.070566862910525,35.901327821586207],[-79.070607377977893,35.901324019871574],[-79.070627213294046,35.901321948005481],[-79.070713730725785,35.901314855988225],[-79.070932767293314,35.901296696412182],[-79.071050516207009,35.901288040255011],[-79.071216377451535,35.901275749784851],[-79.071251406210095,35.901272638755046],[-79.071271241648233,35.901270738032245],[-79.07129150056241,35.901269180456467],[-79.071311758519215,35.901267794125964],[-79.071332016627409,35.901266579941527],[-79.071372533448795,35.901264838357399],[-79.071392792162413,35.901264310957735],[-79.071413051027974,35.901263955704074],[-79.071433310197023,35.901263943844533],[-79.071473828838307,35.901264262611427],[-79.071494088462998,35.90126476538731],[-79.071534608321542,35.901266457723835],[-79.071554446489614,35.901267647532038],[-79.071574706876078,35.901269008337437],[-79.071594967416672,35.901270542190154],[-79.071615228261663,35.901272418535676],[-79.071635067193469,35.901274466373721],[-79.071655328345045,35.901276686110059],[-79.071675167584445,35.901279078240286],[-79.07169542904316,35.901281641367355],[-79.071718223509762,35.901284889797452],[-79.071931393203641,35.901314291996592],[-79.072150934117772,35.901387302453735],[-79.072393674002313,35.901444672808438],[-79.072673987358982,35.901510947740888],[-79.073063974812555,35.901601977466257],[-79.073209534002729,35.901385670500815],[-79.073288717220862,35.901266927259805],[-79.07364315886646,35.900703363211171],[-79.074211052918301,35.899778154313204],[-79.074120256279983,35.899745798521181],[-79.07413100992774,35.899728322862892],[-79.07369874335177,35.898721578107583],[-79.073402348897346,35.898596936589257],[-79.07292512171928,35.897593217082971],[-79.072882638091144,35.897257106196072],[-79.073014524002247,35.89702130298992],[-79.073253767946696,35.896862897184342],[-79.073864472985548,35.896734056588294],[-79.073911608508922,35.895210882670561],[-79.073948487428908,35.894010852149655],[-79.073957073164124,35.893709686413501],[-79.07554428923045,35.893680008111318],[-79.075289062224257,35.893625899899028],[-79.075348001107358,35.893467106104147],[-79.075525811389866,35.893327520436088],[-79.07569915888017,35.893215805737803],[-79.075984431144406,35.89297143860064],[-79.076091205295185,35.892755227365321],[-79.076114337039158,35.892670908103369],[-79.076164483723659,35.892592580998389],[-79.076199875798295,35.892531433023542],[-79.076216595276833,35.892361611453843],[-79.076223214079718,35.892220126130255],[-79.076178790730225,35.892103227948638],[-79.076180793458448,35.891989389550112],[-79.076253669931447,35.891850094454128],[-79.07627513928422,35.891793419327186],[-79.07635273546579,35.891735334583409],[-79.076414298505284,35.89168103812127],[-79.076617625819352,35.891591965787143],[-79.076647958666825,35.891538033114195],[-79.076688838225479,35.891479113167726],[-79.076750808011795,35.891409191175796],[-79.076791627851463,35.891287601385208],[-79.07681561279297,35.891215300368934],[-79.076856097008829,35.891184711467808],[-79.076922740451039,35.891148267378526],[-79.076988959529956,35.891109420629149],[-79.077081288609975,35.891013208828788],[-79.077146608870166,35.890917186188126],[-79.077212735618389,35.890783216964827],[-79.077253081037625,35.890607884903496],[-79.077287114090524,35.890452474859515],[-79.077286360592979,35.889955521078349],[-79.077077254489879,35.889947513646639],[-79.077142628830018,35.889761719570707],[-79.07720460546274,35.889601085862232],[-79.077375922342299,35.889125142407266],[-79.077441533198296,35.888943688674878],[-79.075929642034765,35.888767921898129],[-79.074374927793045,35.888603590205733],[-79.074390528198037,35.887261016551491],[-79.074398227697912,35.886231059601151],[-79.074398271126256,35.88622529929588],[-79.074398820104193,35.88615754019969],[-79.07439884313635,35.886154888528502],[-79.074398848046641,35.886154207134432],[-79.074398958672589,35.88613963286717],[-79.074400252345939,35.886037438724735],[-79.074415528104566,35.884116196727803],[-79.07442473315065,35.883277292404948],[-79.074440883611018,35.883074527003778],[-79.074405408117229,35.882990344469931],[-79.074752525807682,35.882932518571067],[-79.074868264056036,35.882949066882894],[-79.074968991399615,35.882926846259828],[-79.075058951689883,35.883039801952904],[-79.075192483518222,35.883157162475584],[-79.075350430255028,35.883175899728023],[-79.075594231068223,35.883282112713296],[-79.075674526286718,35.883249932054937],[-79.075767125113458,35.883270925616543],[-79.076088659241464,35.883514475380608],[-79.076237124585802,35.883584182979973],[-79.076495842045944,35.883626123091439],[-79.076573365548498,35.883541870288219],[-79.076724494830131,35.883548423400669],[-79.07677756200998,35.88351736685452],[-79.076890543318768,35.883496244648256],[-79.07687561353903,35.883545004217524],[-79.077045767668864,35.883514982321266],[-79.077121962113665,35.883465076299458],[-79.077296253597908,35.883490448772882],[-79.077313970177244,35.883508164548239],[-79.077399688422005,35.883452712852751],[-79.077462315455094,35.883451565386217],[-79.077517219018915,35.882497583580268],[-79.078000433434099,35.882394236623966],[-79.078015247836447,35.882226926458038],[-79.080734087850303,35.882269474783101],[-79.080666460941217,35.882673992427129],[-79.081311759898213,35.882686788934294],[-79.081287414119132,35.882846350038193],[-79.081276321910323,35.883426223765852],[-79.082203014190938,35.883444258146824],[-79.082215076198395,35.883721545846925],[-79.082813117430405,35.88372064558402],[-79.082785839414228,35.88341126353594],[-79.082785632100652,35.883208962388018],[-79.082795734935587,35.88296029433652],[-79.08281110292701,35.882795915208497],[-79.082862520429217,35.882433424776345],[-79.082981028823852,35.881843300042554],[-79.083013552023957,35.881630770947886],[-79.083013484802905,35.881565353725968],[-79.083016844627707,35.881549898434763],[-79.083016829629727,35.881535303489919],[-79.083016814984646,35.881521051944908],[-79.083020175689711,35.881506455603713],[-79.083020160868045,35.88149203280922],[-79.083020146046394,35.88147761001467],[-79.083020131224742,35.881463187220049],[-79.08302011622618,35.881448592274786],[-79.083020101581454,35.88143434163058],[-79.083023462281417,35.881419744387486],[-79.083023447283182,35.881405150343305],[-79.083023431529455,35.881390898798337],[-79.083023416178335,35.881375961354124],[-79.083023401532103,35.881361709808225],[-79.083023386533895,35.881347115763724],[-79.08302337171169,35.881332692968456],[-79.083023356889498,35.881318270173047],[-79.083023342066369,35.881303846476278],[-79.08301995137515,35.881289254729033],[-79.083019936730494,35.881275004084031],[-79.083019921732003,35.881260409137781],[-79.083019906733526,35.881245814191416],[-79.083019892088871,35.881231563546208],[-79.083019876737495,35.88121662519977],[-79.083016486403451,35.881202376851903],[-79.0830164714056,35.881187781905254],[-79.083016456584659,35.88117335910912],[-79.083016441763718,35.881158936312936],[-79.08301305125579,35.881144515814022],[-79.083013036435474,35.881130093017681],[-79.083013020507664,35.881115670222044],[-79.083009629826208,35.881101078473485],[-79.083009615182476,35.881086826926229],[-79.083006224502824,35.881072235177477],[-79.083006209860628,35.881057984531402],[-79.083002819181957,35.881043391881072],[-79.083002804540328,35.881029141234819],[-79.082999413863433,35.881014548584233],[-79.082999399222444,35.881000297937867],[-79.082996008547354,35.880985705287067],[-79.082995993906948,35.880971454640502],[-79.082992603233706,35.880956861989468],[-79.082989212915422,35.88094261363949],[-79.082989198099369,35.880928190842084],[-79.082985807605994,35.880913770341266],[-79.082982417113826,35.880899349840263],[-79.08298240247494,35.880885098291948],[-79.082979011808689,35.880870506541392],[-79.082975620740655,35.880856600689995],[-79.082972230076834,35.880842008939084],[-79.082972215439725,35.880827757390477],[-79.08296882513045,35.880813509039314],[-79.082965434645516,35.880799088537337],[-79.082962044338586,35.880784840185811],[-79.082958654031927,35.880770590932784],[-79.082955263727385,35.880756342580924],[-79.082951873423184,35.880742093327591],[-79.082948482944275,35.880727672824747],[-79.082945092995899,35.880713767872351],[-79.082941702695223,35.880699518618492],[-79.082938312219923,35.880685098115173],[-79.082934922275143,35.880671193162286],[-79.082931531978957,35.88065694480926],[-79.082928142212253,35.880643211105358],[-79.082333862548921,35.878524918298744],[-79.081269774282006,35.878726541926405],[-79.081324937219932,35.878912009893554],[-79.078537420178321,35.878817284280416],[-79.077732672347054,35.878789366054718],[-79.077837420656735,35.877567257642518],[-79.077869269727572,35.876687872118367],[-79.077883338931457,35.876273343326055],[-79.077936278235185,35.874645685987396],[-79.076447802908447,35.874675792769317],[-79.075758426412705,35.874691958967269],[-79.074506399157499,35.874690532812544]]]},"properties":{"OBJECTID":2,"URBANSER_":2,"URBANSER_I":1,"DATE":804470400000,"Shape__Area":715041787.41176891,"Shape__Length":158917.47749329844}}]}
